QIANFAN-65              
1 62795U 25016L   25214.52480565  .00000126  00000+0  17700-3 0  9998
2 62795  88.9831 116.7201 0014978  13.4964 346.6585 13.50960452 29397
QIANFAN-66              
1 62796U 25016M   25214.55346165  .00000133  00000+0  18770-3 0  9995
2 62796  88.9850 116.6613 0015939   8.7342 351.4083 13.50955552 29448
QIANFAN-67              
1 62797U 25016N   25214.85397162  .00000119  00000+0  16562-3 0  9993
2 62797  88.9841 116.6690 0016126  14.3041 345.8564 13.50964322 29459
QIANFAN-68              
1 62798U 25016P   25214.56176233  .00000125  00000+0  17430-3 0  9998
2 62798  88.9844 116.7424 0016717  13.2297 346.9289 13.50961674 29392
QIANFAN-69              
1 62799U 25016Q   25214.78801506  .00000120  00000+0  16717-3 0  9993
2 62799  88.9823 116.6140 0016897  13.5030 346.6570 13.50957360 29466
QIANFAN-70              
1 62800U 25016R   25214.58235644  .00000123  00000+0  17149-3 0  9991
2 62800  88.9844 116.7456 0016172   5.2200 354.9116 13.50961078 29397
QIANFAN-71              
1 62801U 25016S   25214.57832437  .00000125  00000+0  17506-3 0  9993
2 62801  88.9838 116.7337 0016945  17.3757 342.7970 13.50960908 29392
QIANFAN-72              
1 62802U 25016T   25214.57405504  .00000124  00000+0  17255-3 0  9995
2 62802  88.9828 116.7556 0020536  22.3263 337.8777 13.50956301 29385
